LYNK TOWER 6            
1 59123U 24043AB  26068.89488777  .00011440  00000+0  40142-3 0  9996
2 59123  97.5426 204.1954 0009749 232.0253 128.0107 15.29548678111845
STARLINK-36217          
1 67120U 25299U   26068.30398888  .00029489  00000+0  10761-2 0  9990
2 67120  42.9979 171.4782 0002801 290.6433  69.4118 15.27601297 13054
